{
  "type": "FeatureCollection",
  "features": [
    {
      "type": "Feature",
      "properties": {
        "norad_id": 55973,
        "name": "TIANMU-1 03",
        "group": "weather",
        "lat": 20.775749257172645,
        "lon": 159.42773414899824,
        "alt_km": 439.7773770924905,
        "timestamp": "2025-12-25T07:00:33.686446+00:00",
        "meta_object_name": "TIANMU-1 03",
        "meta_object_id": "2023-039A",
        "meta_epoch": "2025-12-24T23:07:40.643904",
        "meta_mean_motion": 15.41275705,
        "meta_eccentricity": 0.00038021,
        "meta_inclination": 97.5114,
        "meta_ra_of_asc_node": 161.9594,
        "meta_arg_of_pericenter": 25.3706,
        "meta_mean_anomaly": 334.7727,
        "meta_ephemeris_type": 0,
        "meta_classification_type": "U",
        "meta_norad_cat_id": 55973,
        "meta_element_set_no": 999,
        "meta_rev_at_epoch": 15394,
        "meta_bstar": 0.0003965868,
        "meta_mean_motion_dot": 0.00016433,
        "meta_mean_motion_ddot": 0,
        "tle_line1": "1 55973U 23039A   25358.96366486  .00016433  00000+0  39659-3 0  9998",
        "tle_line2": "2 55973  97.5114 161.9594 0003802  25.3706 334.7727 15.41275705153941"
      },
      "geometry": {
        "type": "Point",
        "coordinates": [
          159.42773414899824,
          20.775749257172645
        ]
      }
    },
    {
      "type": "Feature",
      "properties": {
        "norad_id": 55974,
        "name": "TIANMU-1 04",
        "group": "weather",
        "lat": 29.190799552558605,
        "lon": -14.293293071720184,
        "alt_km": 442.05584704633566,
        "timestamp": "2025-12-25T07:00:33.686457+00:00",
        "meta_object_name": "TIANMU-1 04",
        "meta_object_id": "2023-039B",
        "meta_epoch": "2025-12-24T22:34:12.449568",
        "meta_mean_motion": 15.41618591,
        "meta_eccentricity": 0.00044085,
        "meta_inclination": 97.5046,
        "meta_ra_of_asc_node": 161.1217,
        "meta_arg_of_pericenter": 18.547,
        "meta_mean_anomaly": 341.5936,
        "meta_ephemeris_type": 0,
        "meta_classification_type": "U",
        "meta_norad_cat_id": 55974,
        "meta_element_set_no": 999,
        "meta_rev_at_epoch": 15394,
        "meta_bstar": 0.0004020934,
        "meta_mean_motion_dot": 0.00016856,
        "meta_mean_motion_ddot": 0,
        "tle_line1": "1 55974U 23039B   25358.94042187  .00016856  00000+0  40209-3 0  9998",
        "tle_line2": "2 55974  97.5046 161.1217 0004408  18.5470 341.5936 15.41618591153947"
      },
      "geometry": {
        "type": "Point",
        "coordinates": [
          -14.293293071720184,
          29.190799552558605
        ]
      }
    },
    {
      "type": "Feature",
      "properties": {
        "norad_id": 55975,
        "name": "TIANMU-1 05",
        "group": "weather",
        "lat": 14.702554286918314,
        "lon": -16.040391770569425,
        "alt_km": 444.87339953038645,
        "timestamp": "2025-12-25T07:00:33.686468+00:00",
        "meta_object_name": "TIANMU-1 05",
        "meta_object_id": "2023-039C",
        "meta_epoch": "2025-12-24T22:30:17.278272",
        "meta_mean_motion": 15.41231847,
        "meta_eccentricity": 0.00039492,
        "meta_inclination": 97.5093,
        "meta_ra_of_asc_node": 161.6118,
        "meta_arg_of_pericenter": 44.3933,
        "meta_mean_anomaly": 315.7629,
        "meta_ephemeris_type": 0,
        "meta_classification_type": "U",
        "meta_norad_cat_id": 55975,
        "meta_element_set_no": 999,
        "meta_rev_at_epoch": 15392,
        "meta_bstar": 0.00040135033,
        "meta_mean_motion_dot": 0.00016608,
        "meta_mean_motion_ddot": 0,
        "tle_line1": "1 55975U 23039C   25358.93769998  .00016608  00000+0  40135-3 0  9997",
        "tle_line2": "2 55975  97.5093 161.6118 0003949  44.3933 315.7629 15.41231847153920"
      },
      "geometry": {
        "type": "Point",
        "coordinates": [
          -16.040391770569425,
          14.702554286918314
        ]
      }
    },
    {
      "type": "Feature",
      "properties": {
        "norad_id": 55976,
        "name": "TIANMU-1 06",
        "group": "weather",
        "lat": 38.791326851042676,
        "lon": -11.46134581989859,
        "alt_km": 438.9818312730831,
        "timestamp": "2025-12-25T07:00:33.686478+00:00",
        "meta_object_name": "TIANMU-1 06",
        "meta_object_id": "2023-039D",
        "meta_epoch": "2025-12-24T22:36:45.105408",
        "meta_mean_motion": 15.41669925,
        "meta_eccentricity": 0.00042035,
        "meta_inclination": 97.5104,
        "meta_ra_of_asc_node": 162.0915,
        "meta_arg_of_pericenter": 38.4419,
        "meta_mean_anomaly": 321.7127,
        "meta_ephemeris_type": 0,
        "meta_classification_type": "U",
        "meta_norad_cat_id": 55976,
        "meta_element_set_no": 999,
        "meta_rev_at_epoch": 15394,
        "meta_bstar": 0.00040256154,
        "meta_mean_motion_dot": 0.00016904,
        "meta_mean_motion_ddot": 0,
        "tle_line1": "1 55976U 23039D   25358.94218872  .00016904  00000+0  40256-3 0  9992",
        "tle_line2": "2 55976  97.5104 162.0915 0004203  38.4419 321.7127 15.41669925153945"
      },
      "geometry": {
        "type": "Point",
        "coordinates": [
          -11.46134581989859,
          38.791326851042676
        ]
      }
    },
    {
      "type": "Feature",
      "properties": {
        "norad_id": 56232,
        "name": "FENGYUN 3G",
        "group": "weather",
        "lat": 19.370120734186546,
        "lon": -34.51160560280458,
        "alt_km": 410.319985266211,
        "timestamp": "2025-12-25T07:00:33.686489+00:00",
        "meta_object_name": "FENGYUN 3G",
        "meta_object_id": "2023-055A",
        "meta_epoch": "2025-12-24T22:37:17.658336",
        "meta_mean_motion": 15.52036957,
        "meta_eccentricity": 0.00039259,
        "meta_inclination": 49.9924,
        "meta_ra_of_asc_node": 164.4637,
        "meta_arg_of_pericenter": 287.7097,
        "meta_mean_anomaly": 72.3441,
        "meta_ephemeris_type": 0,
        "meta_classification_type": "U",
        "meta_norad_cat_id": 56232,
        "meta_element_set_no": 999,
        "meta_rev_at_epoch": 15292,
        "meta_bstar": 0.00050839363,
        "meta_mean_motion_dot": 0.0003091,
        "meta_mean_motion_ddot": 0,
        "tle_line1": "1 56232U 23055A   25358.94256549  .00030910  00000+0  50839-3 0  9990",
        "tle_line2": "2 56232  49.9924 164.4637 0003925 287.7097  72.3441 15.52036957152920"
      },
      "geometry": {
        "type": "Point",
        "coordinates": [
          -34.51160560280458,
          19.370120734186546
        ]
      }
    },
    {
      "type": "Feature",
      "properties": {
        "norad_id": 57166,
        "name": "METEOR-M2 3",
        "group": "weather",
        "lat": 58.63008838480115,
        "lon": -112.9541242870095,
        "alt_km": 808.1062804791036,
        "timestamp": "2025-12-25T07:00:33.686503+00:00",
        "meta_object_name": "METEOR-M2 3",
        "meta_object_id": "2023-091A",
        "meta_epoch": "2025-12-24T23:42:05.438016",
        "meta_mean_motion": 14.24027517,
        "meta_eccentricity": 0.00032541,
        "meta_inclination": 98.6362,
        "meta_ra_of_asc_node": 52.3121,
        "meta_arg_of_pericenter": 330.5943,
        "meta_mean_anomaly": 29.5052,
        "meta_ephemeris_type": 0,
        "meta_classification_type": "U",
        "meta_norad_cat_id": 57166,
        "meta_element_set_no": 999,
        "meta_rev_at_epoch": 12972,
        "meta_bstar": 2.2579466e-05,
        "meta_mean_motion_dot": 8e-08,
        "meta_mean_motion_ddot": 0,
        "tle_line1": "1 57166U 23091A   25358.98756294  .00000008  00000+0  22579-4 0  9999",
        "tle_line2": "2 57166  98.6362  52.3121 0003254 330.5943  29.5052 14.24027517129723"
      },
      "geometry": {
        "type": "Point",
        "coordinates": [
          -112.9541242870095,
          58.63008838480115
        ]
      }
    },
    {
      "type": "Feature",
      "properties": {
        "norad_id": 57399,
        "name": "TIANMU-1 07",
        "group": "weather",
        "lat": -35.125431699219384,
        "lon": 54.028520099693246,
        "alt_km": 487.05430702389003,
        "timestamp": "2025-12-25T07:00:33.686515+00:00",
        "meta_object_name": "TIANMU-1 07",
        "meta_object_id": "2023-101A",
        "meta_epoch": "2025-12-24T23:18:24.905376",
        "meta_mean_motion": 15.28241873,
        "meta_eccentricity": 0.00050247,
        "meta_inclination": 97.2856,
        "meta_ra_of_asc_node": 48.551,
        "meta_arg_of_pericenter": 50.0368,
        "meta_mean_anomaly": 310.1312,
        "meta_ephemeris_type": 0,
        "meta_classification_type": "U",
        "meta_norad_cat_id": 57399,
        "meta_element_set_no": 999,
        "meta_rev_at_epoch": 13502,
        "meta_bstar": 0.00029376952,
        "meta_mean_motion_dot": 8.015e-05,
        "meta_mean_motion_ddot": 0,
        "tle_line1": "1 57399U 23101A   25358.97112159  .00008015  00000+0  29377-3 0  9992",
        "tle_line2": "2 57399  97.2856  48.5510 0005024  50.0368 310.1312 15.28241873135021"
      },
      "geometry": {
        "type": "Point",
        "coordinates": [
          54.028520099693246,
          -35.125431699219384
        ]
      }
    }
  ]
}